BEIDOU 3 (C01)          
1 36287U 10001A   22058.59735777 -.00000298  00000+0  00000+0 0  9993
2 36287   1.8935  47.8225 0002636  17.5252  87.4865  1.00270944 44419
BEIDOU 5 (C06)          
1 36828U 10036A   22058.72479898 -.00000173  00000+0  00000+0 0  9998
2 36828  54.1922 177.2341 0027557 181.1629 168.6506  1.00278214 42475
BEIDOU 6 (C04)          
1 37210U 10057A   22058.81661407 -.00000129  00000+0  00000+0 0  9997
2 37210   0.9703  54.0811 0003876 155.3942  42.1585  1.00271333 41534
BEIDOU 7 (C07)          
1 37256U 10068A   22058.22210926 -.00000166  00000+0  00000+0 0  9991
2 37256  50.4065 290.9641 0017645 186.2107 228.0030  1.00284910 41043
BEIDOU 8 (C08)          
1 37384U 11013A   22056.66471434 -.00000154  00000+0  00000+0 0  9990
2 37384  60.1370  55.3634 0019972 195.5228 252.1974  1.00285494 39904
BEIDOU 9 (C09)          
1 37763U 11038A   22058.80335691 -.00000114  00000+0  00000+0 0  9996
2 37763  54.4757 179.7121 0089239 225.5264 134.9102  1.00257658 38909
BEIDOU 10 (C10)         
1 37948U 11073A   22057.75785091 -.00000121  00000+0  00000+0 0  9994
2 37948  50.5219 290.6039 0076974 218.4584  16.2383  1.00278025 37647
BEIDOU 11 (C05)         
1 38091U 12008A   22058.62136640  .00000042  00000+0  00000+0 0  9991
2 38091   1.3239  64.1716 0013755 315.6045  59.7861  1.00271281 36738
BEIDOU 12 (C11)         
1 38250U 12018A   22057.82915183 -.00000101  00000+0  00000+0 0  9994
2 38250  56.7212 357.2135 0023435 257.3036 304.5607  1.86234460 67026
BEIDOU 13 (C12)         
1 38251U 12018B   22057.76078494 -.00000101  00000+0  00000+0 0  9993
2 38251  56.6403 356.5475 0014361 263.6392 296.6528  1.86234310 67027
BEIDOU 15 (C14)         
1 38775U 12050B   22058.68911911 -.00000003  00000+0  00000+0 0  9993
2 38775  55.3361 115.3802 0013797 318.6593 340.7464  1.86231332 64419
BEIDOU 16 (C02)         
1 38953U 12059A   22058.51432608 -.00000190  00000+0  00000+0 0  9990
2 38953   1.7169  84.6220 0013287 286.5572  55.1704  1.00267528 34158
BEIDOU 17 (C31)         
1 40549U 15019A   22058.79824442 -.00000165  00000+0  00000+0 0  9996
2 40549  52.0713 314.0287 0035288 190.1411  36.3125  1.00265770 25331
BEIDOU 18 (C57)         
1 40748U 15037A   22058.40150295 -.00000104  00000+0  00000+0 0  9996
2 40748  55.8970 355.4594 0005275 352.5050 186.9567  1.86233388 44869
BEIDOU 19 (C58)         
1 40749U 15037B   22058.20072671 -.00000104  00000+0  00000+0 0  9996
2 40749  55.8986 355.4554 0007004 323.6234 216.2012  1.86232291 44851
BEIDOU 20 (C18)         
1 40938U 15053A   22058.58313391 -.00000087  00000+0  00000+0 0  9992
2 40938  51.6689 277.1319 0043096 193.1201 353.2473  1.00270694 23595
BEIDOU IGSO-6 (C13)     
1 41434U 16021A   22057.34762616 -.00000123  00000+0  00000+0 0  9992
2 41434  57.9360  53.9827 0043914 219.3959 102.4621  1.00263798 21714
BEIDOU-2 G7 (C03)       
1 41586U 16037A   22058.51964638 -.00000371  00000+0  00000+0 0  9990
2 41586   1.7329  67.9738 0008917   0.2610  26.7027  1.00271702 21043
BEIDOU-3 M1 (C19)       
1 43001U 17069A   22058.28139503 -.00000006  00000+0  00000+0 0  9994
2 43001  55.4896 115.3794 0010576 285.2543 256.9671  1.86231642 29342
BEIDOU-3 M2 (C20)       
1 43002U 17069B   22057.46820938 -.00000011  00000+0  00000+0 0  9999
2 43002  55.4879 115.4442 0008445 305.5244  94.6555  1.86231415 29325
BEIDOU-3 M3 (C27)       
1 43107U 18003A   22058.62907679 -.00000106  00000+0  00000+0 0  9996
2 43107  55.3447 356.4179 0004702  35.7242 228.7813  1.86232516 28102
BEIDOU-3 M4 (C28)       
1 43108U 18003B   22057.36346434 -.00000101  00000+0  00000+0 0  9998
2 43108  55.3380 356.4508 0003572 271.6878 268.7965  1.86231013 28085
BEIDOU-3 M5 (C21)       
1 43207U 18018A   22057.00347768 -.00000014  00000+0  00000+0 0  9999
2 43207  55.4467 115.5404 0005776 323.5847  36.4413  1.86231562 27460
BEIDOU-3 M6 (C22)       
1 43208U 18018B   22058.14404035 -.00000007  00000+0  00000+0 0  9999
2 43208  55.4478 115.5067 0008633 294.8797  65.1005  1.86231712 27482
BEIDOU-3 M7 (C29)       
1 43245U 18029A   22057.68294757 -.00000102  00000+0  00000+0 0  9994
2 43245  55.2640 354.2263 0001536 324.5406 295.9811  1.86232571 26622
BEIDOU-3 M8 (C30)       
1 43246U 18029B   22058.69520100 -.00000106  00000+0  10000-3 0  9990
2 43246  55.2605 354.2221 0005246 347.2495 278.3869  1.86232837 26634
BEIDOU IGSO-7 (C16)     
1 43539U 18057A   22058.73524970 -.00000173  00000+0  00000+0 0  9999
2 43539  55.0768 176.6797 0045569 223.7873 131.5964  1.00290906 13405
BEIDOU-3 M9 (C23)       
1 43581U 18062A   22058.57479878  .00000050  00000+0  00000+0 0  9993
2 43581  54.3116 235.8464 0002056 325.5833  70.0279  1.86231874 24389
BEIDOU-3 M10 (C24)      
1 43582U 18062B   22058.11115366  .00000059  00000+0  00000+0 0  9992
2 43582  54.3110 235.8520 0006703  22.8856 153.5622  1.86232230 24377
BEIDOU-3 M11 (C25)      
1 43602U 18067A   22056.74183524  .00000080  00000+0  00000+0 0  9992
2 43602  54.3926 234.5040 0007899  14.9057   5.0660  1.86231697 23840
BEIDOU-3 M12 (C26)      
1 43603U 18067B   22058.45049446  .00000052  00000+0  00000+0 0  9996
2 43603  54.3887 234.4121 0004842  11.2027 344.7448  1.86231577 23886
BEIDOU-3 M13 (C32)      
1 43622U 18072A   22058.34961247 -.00000005  00000+0  00000+0 0  9992
2 43622  55.4147 115.0542 0007423 279.1948  38.7275  1.86231471 23391
BEIDOU-3 M14 (C33)      
1 43623U 18072B   22058.21542426 -.00000006  00000+0  00000+0 0  9994
2 43623  55.4163 115.0512 0004994 299.8698  18.3227  1.86231521 23395
BEIDOU-3 M15 (C34)      
1 43647U 18078A   22058.28956899 -.00000104  00000+0  10000-3 0  9990
2 43647  55.1584 354.3749 0007629 356.5845 266.7277  1.86232625 22904
BEIDOU-3 M16 (C35)      
1 43648U 18078B   22058.32422823 -.00000105  00000+0  00000+0 0  9997
2 43648  55.1543 354.3792 0005392   1.1973 193.3539  1.86232264 22925
BEIDOU-3 G1 (C59)       
1 43683U 18085A   22058.52548999 -.00000296  00000+0  00000+0 0  9990
2 43683   0.8384 185.9462 0001573 343.6597 316.9396  1.00270472 12303
BEIDOU-3 M17 (C36)      
1 43706U 18093A   22058.18612838  .00000058  00000+0  00000+0 0  9996
2 43706  54.3935 235.7359 0007174 283.1175  76.7909  1.86231683 22269
BEIDOU-3 M18 (C37)      
1 43707U 18093B   22057.77635197  .00000065  00000+0  00000+0 0  9992
2 43707  54.3942 235.7412 0006880 319.5166 216.7730  1.86232204 22263
BEIDOU-3 IGSO-1 (C38)   
1 44204U 19023A   22058.37786683 -.00000190  00000+0  00000+0 0  9993
2 44204  56.4062  54.1520 0021290 205.5001 151.5273  1.00290759 10607
BEIDOU-2 G8             
1 44231U 19027A   22057.36924343 -.00000262  00000+0  00000+0 0  9992
2 44231   0.6001  69.9033 0004934 141.7442 221.8031  1.00265522 10311
BEIDOU-3 IGSO-2 (C39)   
1 44337U 19035A   22058.65853263 -.00000183  00000+0  00000+0 0  9995
2 44337  55.1135 172.7030 0022444 189.2356 150.8380  1.00286818  9944
BEIDOU-3 M23 (C45)      
1 44542U 19061A   22055.97375241  .00000089  00000+0  00000+0 0  9993
2 44542  54.6202 235.9315 0008269 353.9291   6.0577  1.86231200 16493
BEIDOU-3 M24 (C46)      
1 44543U 19061B   22056.90601388  .00000079  00000+0  00000+0 0  9991
2 44543  54.6174 235.8701 0005495 353.3305 182.8520  1.86231764 16506
BEIDOU-3 IGSO-3         
1 44709U 19073A   22057.56646549 -.00000156  00000+0  00000+0 0  9996
2 44709  57.4369 297.5337 0019914 173.8297   7.3488  1.00289604  8690
BEIDOU-3 M21            
1 44793U 19078A   22058.35731030 -.00000105  00000+0  10000-3 0  9991
2 44793  55.0078 354.4063 0007403   1.1640 261.6421  1.86232220 15391
BEIDOU-3 M22            
1 44794U 19078B   22057.28656453 -.00000101  00000+0  00000+0 0  9999
2 44794  54.9817 354.4371 0005367 356.1809 180.1915  1.86232728 15374
BEIDOU-3 M19            
1 44864U 19090A   22058.28148941 -.00000006  00000+0  00000+0 0  9994
2 44864  55.3495 115.2728 0017712 267.3453  50.5990  1.86231855 14971
BEIDOU-3 M20            
1 44865U 19090B   22058.26031457 -.00000006  00000+0  00000+0 0  9996
2 44865  55.3512 115.3055 0015930 280.5181 113.1128  1.86231764 14957
BEIDOU-3 G2             
1 45344U 20017A   22058.51354111 -.00000154  00000+0  00000+0 0  9997
2 45344   2.1491 346.7654 0002406  67.2892   8.1018  1.00269570  7511
BEIDOU-3 G3             
1 45807U 20040A   22058.59142693 -.00000371  00000+0  00000+0 0  9996
2 45807   1.6940 300.6320 0007962 348.5083 191.6887  1.00272868  6331
